[Satellite]
VERSION=1.1
NAME=KA-SAT
NICKNAME=KA-SAT
TLE1=1 37258U 10069A   15055.16375978  .00000036  00000-0  10000-3 0  9996
TLE2=2 37258   0.0536 294.1349 0001110 218.9580  68.5634  1.00273337 15395
